JILIN-1 GAOFEN 03D11    
1 51835U 22019M   26065.18646223  .00165135  00000+0  10578-2 0  9990
2 51835  97.3742 158.1890 0004099 176.0899 184.0399 15.75804215223919
JILIN-1 GAOFEN 03D15    
1 51839U 22019R   26065.29894112  .00106833  00000+0  94769-3 0  9993
2 51839  97.3703 156.3420 0004144 179.1413 180.9856 15.68225745223837
JILIN-1 GAOFEN 03D10    
1 51840U 22019S   26065.32059053  .00144486  00000+0  92827-3 0  9995
2 51840  97.3698 158.3295 0001802 218.8594 141.2542 15.75802125223959
JILIN-1 GAOFEN 03D12    
1 51841U 22019T   26065.29764950  .00109466  00000+0  95828-3 0  9994
2 51841  97.3677 156.2512 0002754 156.4857 203.6531 15.68548224223839
JILIN-1 GAOFEN 03D18    
1 51844U 22019W   26065.29959998  .00154647  00000+0  10139-2 0  9997
2 51844  97.3687 157.3883 0005159 152.2829 207.8712 15.75292240223818
2022-023F               
1 51951U 22023F   26065.30841206  .00006781  00000+0  28425-3 0  9998
2 51951  63.4548 263.1692 0118883 343.7629  15.9687 15.18180263222091
CZ-4C R/B               
1 52085U 22027B   26065.12140842 -.00000030  00000+0  67290-4 0  9995
2 52085  63.3963 333.2932 0223369  22.9764 338.1077 13.65472104197966
MERIDIAN 10             
1 52145U 22030A   26064.78987098  .00000259  00000+0  00000+0 0  9992
2 52145  62.6647 151.8349 6758701 272.9562  17.8252  2.00610842 28961
OMNI-L1                 
1 52157U 22033A   26065.18481026  .00002669  00000+0  34037-3 0  9991
2 52157  97.8444 146.3786 0004063 254.3761 105.7004 14.82308321212198
ENMAP                   
1 52159U 22033C   26065.25384903  .00000668  00000+0  10679-3 0  9990
2 52159  97.9773 148.9661 0001015  92.8400 267.2925 14.74962750211485
ARCSAT-1                
1 52161U 22033E   26065.24019396  .00015196  00000+0  26502-3 0  9997
2 52161  97.2739 156.2097 0005028 196.1342 163.9751 15.50797163219733
GLOBAL-18               
1 52196U 22034B   26065.28216697  .00025727  00000+0  60325-3 0  9995
2 52196  52.9843  26.8900 0002635 319.0069  41.0737 15.41925152221063
GAOFEN-3 03             
1 52200U 22035A   26065.27270912  .00000344  00000+0  11769-3 0  9997
2 52200  98.4102  75.3290 0001443  99.1896 260.9457 14.42227930206011
DAQI 1                  
1 52257U 22039A   26065.31626763  .00000743  00000+0  17292-3 0  9997
2 52257  98.1408   6.3498 0002844 191.4716 168.6419 14.57652455206951
JILIN-1 GAOFEN 3D05     
1 52390U 22046C   26065.25014329  .00193416  00000+0  11258-2 0  9990
2 52390  97.4798 179.3156 0003259 238.5111 121.5836 15.77912920214384
BRO-6                   
1 52422U 22047AE  26065.25079514  .00017407  00000+0  37994-3 0  9995
2 52422  97.3426 154.8239 0005758  89.0078 271.1830 15.44259410215237
