[{"OBJECT_NAME":"JILIN-1 GAOFEN 03D11","OBJECT_ID":"2022-019M","EPOCH":"2026-03-06T04:28:30.336672","MEAN_MOTION":15.75804215,"ECCENTRICITY":0.0004099,"INCLINATION":97.3742,"RA_OF_ASC_NODE":158.189,"ARG_OF_PERICENTER":176.0899,"MEAN_ANOMALY":184.0399,"EPHEMERIS_TYPE":0,"CLASSIFICATION_TYPE":"U","NORAD_CAT_ID":51835,"ELEMENT_SET_NO":999,"REV_AT_EPOCH":22391,"BSTAR":0.0010578264,"MEAN_MOTION_DOT":0.00165135,"MEAN_MOTION_DDOT":0},{"OBJECT_NAME":"JILIN-1 GAOFEN 03D15","OBJECT_ID":"2022-019R","EPOCH":"2026-03-06T07:10:28.512768","MEAN_MOTION":15.68225745,"ECCENTRICITY":0.00041442,"INCLINATION":97.3703,"RA_OF_ASC_NODE":156.342,"ARG_OF_PERICENTER":179.1413,"MEAN_ANOMALY":180.9856,"EPHEMERIS_TYPE":0,"CLASSIFICATION_TYPE":"U","NORAD_CAT_ID":51839,"ELEMENT_SET_NO":999,"REV_AT_EPOCH":22383,"BSTAR":0.00094768767,"MEAN_MOTION_DOT":0.00106833,"MEAN_MOTION_DDOT":0},{"OBJECT_NAME":"JILIN-1 GAOFEN 03D10","OBJECT_ID":"2022-019S","EPOCH":"2026-03-06T07:41:39.021792","MEAN_MOTION":15.75802125,"ECCENTRICITY":0.00018022,"INCLINATION":97.3698,"RA_OF_ASC_NODE":158.3295,"ARG_OF_PERICENTER":218.8594,"MEAN_ANOMALY":141.2542,"EPHEMERIS_TYPE":0,"CLASSIFICATION_TYPE":"U","NORAD_CAT_ID":51840,"ELEMENT_SET_NO":999,"REV_AT_EPOCH":22395,"BSTAR":0.00092827378,"MEAN_MOTION_DOT":0.00144486,"MEAN_MOTION_DDOT":0},{"OBJECT_NAME":"JILIN-1 GAOFEN 03D12","OBJECT_ID":"2022-019T","EPOCH":"2026-03-06T07:08:36.916800","MEAN_MOTION":15.68548224,"ECCENTRICITY":0.00027548,"INCLINATION":97.3677,"RA_OF_ASC_NODE":156.2512,"ARG_OF_PERICENTER":156.4857,"MEAN_ANOMALY":203.6531,"EPHEMERIS_TYPE":0,"CLASSIFICATION_TYPE":"U","NORAD_CAT_ID":51841,"ELEMENT_SET_NO":999,"REV_AT_EPOCH":22383,"BSTAR":0.00095827658,"MEAN_MOTION_DOT":0.00109466,"MEAN_MOTION_DDOT":0},{"OBJECT_NAME":"JILIN-1 GAOFEN 03D18","OBJECT_ID":"2022-019W","EPOCH":"2026-03-06T07:11:25.438272","MEAN_MOTION":15.7529224,"ECCENTRICITY":0.00051594,"INCLINATION":97.3687,"RA_OF_ASC_NODE":157.3883,"ARG_OF_PERICENTER":152.2829,"MEAN_ANOMALY":207.8712,"EPHEMERIS_TYPE":0,"CLASSIFICATION_TYPE":"U","NORAD_CAT_ID":51844,"ELEMENT_SET_NO":999,"REV_AT_EPOCH":22381,"BSTAR":0.001013915,"MEAN_MOTION_DOT":0.00154647,"MEAN_MOTION_DDOT":0},{"OBJECT_NAME":"2022-023F","OBJECT_ID":"2022-023F","EPOCH":"2026-03-06T07:24:06.801984","MEAN_MOTION":15.18180263,"ECCENTRICITY":0.01188835,"INCLINATION":63.4548,"RA_OF_ASC_NODE":263.1692,"ARG_OF_PERICENTER":343.7629,"MEAN_ANOMALY":15.9687,"EPHEMERIS_TYPE":0,"CLASSIFICATION_TYPE":"U","NORAD_CAT_ID":51951,"ELEMENT_SET_NO":999,"REV_AT_EPOCH":22209,"BSTAR":0.0002842538,"MEAN_MOTION_DOT":6.781e-5,"MEAN_MOTION_DDOT":0},{"OBJECT_NAME":"CZ-4C R/B","OBJECT_ID":"2022-027B","EPOCH":"2026-03-06T02:54:49.687488","MEAN_MOTION":13.65472104,"ECCENTRICITY":0.02233695,"INCLINATION":63.3963,"RA_OF_ASC_NODE":333.2932,"ARG_OF_PERICENTER":22.9764,"MEAN_ANOMALY":338.1077,"EPHEMERIS_TYPE":0,"CLASSIFICATION_TYPE":"U","NORAD_CAT_ID":52085,"ELEMENT_SET_NO":999,"REV_AT_EPOCH":19796,"BSTAR":6.7289764e-5,"MEAN_MOTION_DOT":-3.0e-7,"MEAN_MOTION_DDOT":0},{"OBJECT_NAME":"MERIDIAN 10","OBJECT_ID":"2022-030A","EPOCH":"2026-03-05T18:57:24.852672","MEAN_MOTION":2.00610842,"ECCENTRICITY":0.67587016,"INCLINATION":62.6647,"RA_OF_ASC_NODE":151.8349,"ARG_OF_PERICENTER":272.9562,"MEAN_ANOMALY":17.8252,"EPHEMERIS_TYPE":0,"CLASSIFICATION_TYPE":"U","NORAD_CAT_ID":52145,"ELEMENT_SET_NO":999,"REV_AT_EPOCH":2896,"BSTAR":0,"MEAN_MOTION_DOT":2.59e-6,"MEAN_MOTION_DDOT":0},{"OBJECT_NAME":"OMNI-L1","OBJECT_ID":"2022-033A","EPOCH":"2026-03-06T04:26:07.606464","MEAN_MOTION":14.82308321,"ECCENTRICITY":0.00040639,"INCLINATION":97.8444,"RA_OF_ASC_NODE":146.3786,"ARG_OF_PERICENTER":254.3761,"MEAN_ANOMALY":105.7004,"EPHEMERIS_TYPE":0,"CLASSIFICATION_TYPE":"U","NORAD_CAT_ID":52157,"ELEMENT_SET_NO":999,"REV_AT_EPOCH":21219,"BSTAR":0.00034037033,"MEAN_MOTION_DOT":2.669e-5,"MEAN_MOTION_DDOT":0},{"OBJECT_NAME":"ENMAP","OBJECT_ID":"2022-033C","EPOCH":"2026-03-06T06:05:32.556192","MEAN_MOTION":14.7496275,"ECCENTRICITY":0.00010158,"INCLINATION":97.9773,"RA_OF_ASC_NODE":148.9661,"ARG_OF_PERICENTER":92.84,"MEAN_ANOMALY":267.2925,"EPHEMERIS_TYPE":0,"CLASSIFICATION_TYPE":"U","NORAD_CAT_ID":52159,"ELEMENT_SET_NO":999,"REV_AT_EPOCH":21148,"BSTAR":0.00010679117,"MEAN_MOTION_DOT":6.68e-6,"MEAN_MOTION_DDOT":0},{"OBJECT_NAME":"ARCSAT-1","OBJECT_ID":"2022-033E","EPOCH":"2026-03-06T05:45:52.758144","MEAN_MOTION":15.50797163,"ECCENTRICITY":0.0005028,"INCLINATION":97.2739,"RA_OF_ASC_NODE":156.2097,"ARG_OF_PERICENTER":196.1342,"MEAN_ANOMALY":163.9751,"EPHEMERIS_TYPE":0,"CLASSIFICATION_TYPE":"U","NORAD_CAT_ID":52161,"ELEMENT_SET_NO":999,"REV_AT_EPOCH":21973,"BSTAR":0.0002650199,"MEAN_MOTION_DOT":0.00015196,"MEAN_MOTION_DDOT":0},{"OBJECT_NAME":"GLOBAL-18","OBJECT_ID":"2022-034B","EPOCH":"2026-03-06T06:46:19.226208","MEAN_MOTION":15.41925152,"ECCENTRICITY":0.00026354,"INCLINATION":52.9843,"RA_OF_ASC_NODE":26.89,"ARG_OF_PERICENTER":319.0069,"MEAN_ANOMALY":41.0737,"EPHEMERIS_TYPE":0,"CLASSIFICATION_TYPE":"U","NORAD_CAT_ID":52196,"ELEMENT_SET_NO":999,"REV_AT_EPOCH":22106,"BSTAR":0.00060324667,"MEAN_MOTION_DOT":0.00025727,"MEAN_MOTION_DDOT":0},{"OBJECT_NAME":"GAOFEN-3 03","OBJECT_ID":"2022-035A","EPOCH":"2026-03-06T06:32:42.067968","MEAN_MOTION":14.4222793,"ECCENTRICITY":0.00014439,"INCLINATION":98.4102,"RA_OF_ASC_NODE":75.329,"ARG_OF_PERICENTER":99.1896,"MEAN_ANOMALY":260.9457,"EPHEMERIS_TYPE":0,"CLASSIFICATION_TYPE":"U","NORAD_CAT_ID":52200,"ELEMENT_SET_NO":999,"REV_AT_EPOCH":20601,"BSTAR":0.00011769161,"MEAN_MOTION_DOT":3.44e-6,"MEAN_MOTION_DDOT":0},{"OBJECT_NAME":"DAQI 1","OBJECT_ID":"2022-039A","EPOCH":"2026-03-06T07:35:25.523232","MEAN_MOTION":14.57652455,"ECCENTRICITY":0.00028441,"INCLINATION":98.1408,"RA_OF_ASC_NODE":6.3498,"ARG_OF_PERICENTER":191.4716,"MEAN_ANOMALY":168.6419,"EPHEMERIS_TYPE":0,"CLASSIFICATION_TYPE":"U","NORAD_CAT_ID":52257,"ELEMENT_SET_NO":999,"REV_AT_EPOCH":20695,"BSTAR":0.00017291892,"MEAN_MOTION_DOT":7.43e-6,"MEAN_MOTION_DDOT":0},{"OBJECT_NAME":"JILIN-1 GAOFEN 3D05","OBJECT_ID":"2022-046C","EPOCH":"2026-03-06T06:00:12.380256","MEAN_MOTION":15.7791292,"ECCENTRICITY":0.00032597,"INCLINATION":97.4798,"RA_OF_ASC_NODE":179.3156,"ARG_OF_PERICENTER":238.5111,"MEAN_ANOMALY":121.5836,"EPHEMERIS_TYPE":0,"CLASSIFICATION_TYPE":"U","NORAD_CAT_ID":52390,"ELEMENT_SET_NO":999,"REV_AT_EPOCH":21438,"BSTAR":0.00112577,"MEAN_MOTION_DOT":0.00193416,"MEAN_MOTION_DDOT":0},{"OBJECT_NAME":"BRO-6","OBJECT_ID":"2022-047AE","EPOCH":"2026-03-06T06:01:08.700096","MEAN_MOTION":15.4425941,"ECCENTRICITY":0.00057589,"INCLINATION":97.3426,"RA_OF_ASC_NODE":154.8239,"ARG_OF_PERICENTER":89.0078,"MEAN_ANOMALY":271.183,"EPHEMERIS_TYPE":0,"CLASSIFICATION_TYPE":"U","NORAD_CAT_ID":52422,"ELEMENT_SET_NO":999,"REV_AT_EPOCH":21523,"BSTAR":0.00037994246,"MEAN_MOTION_DOT":0.00017407,"MEAN_MOTION_DDOT":0}]
